SL-12 R/B(2)            
1 15772U 85042D   26166.55158541  .00000119  00000+0  74998-4 0  9997
2 15772  71.1079 240.9719 0036256 330.2222 128.4860 14.22005622128304
SL-14 R/B               
1 15945U 85069B   26166.41905184  .00000386  00000+0  40786-4 0  9990
2 15945  82.5269 293.0288 0017663 225.3367 134.6411 14.86514310187358
SL-16 R/B               
1 16182U 85097B   26166.50365874 -.00000207  00000+0 -79664-4 0  9992
2 16182  71.0034 294.6224 0005418 115.1232 312.9937 14.16610412101087
SL-14 R/B               
1 16496U 86006B   26166.50380034  .00000491  00000+0  49468-4 0  9998
2 16496  82.5262 167.6975 0075053 309.1565  50.2997 14.86944169163748
COSMOS 1743             
1 16719U 86034A   26166.48629413  .00037829  00000+0  35764-3 0  9999
2 16719  82.5273 330.5400 0003806 278.5316  81.5513 15.66808815195520
SL-14 R/B               
1 16792U 86046B   26166.53645442  .00000334  00000+0  35603-4 0  9993
2 16792  82.4816 347.7355 0021585 264.2652  95.6103 14.85670082140930
SL-14 R/B               
1 16882U 86055B   26166.41499750  .00000348  00000+0  37175-4 0  9990
2 16882  82.5205  34.7992 0019232  13.4774 159.4575 14.85722019133873
AJISAI (EGS)            
1 16908U 86061A   26166.53570784 -.00000112  00000+0 -10352-3 0  9994
2 16908  50.0065 152.4732 0011221 176.4001 281.6208 12.44516822480185
SL-14 R/B               
1 17567U 87024B   26166.53432178  .00000334  00000+0  35222-4 0  9998
2 17567  82.5279   0.8043 0016879 299.2083  60.7445 14.86212225102664
COSMOS 1833             
1 17589U 87027A   26166.26776325  .00000311  00000+0  19200-3 0  9992
2 17589  70.9175 120.9026 0022740  58.3302 302.0033 14.13048561 24108
SL-16 R/B               
1 17590U 87027B   26166.45151574 -.00000220  00000+0 -85219-4 0  9993
2 17590  71.0033  70.4861 0006467 314.2026  45.8566 14.17172125 29191
SL-14 R/B               
1 17912U 87038B   26166.51222933  .00000306  00000+0  32613-4 0  9991
2 17912  82.5009 204.6500 0018737 196.8163 163.2435 14.85444297 93759
COSMOS 1844             
1 17973U 87041A   26166.48069985 -.00000171  00000+0 -63434-4 0  9991
2 17973  70.8972 187.9071 0032979 238.0439 121.7476 14.14568262 17414
SL-14 R/B               
1 18153U 87055B   26166.53937463  .00000355  00000+0  37889-4 0  9995
2 18153  82.4996 256.7824 0021807  52.8551 307.4652 14.85710136 84461
COSMOS 1867             
1 18187U 87060A   26166.31684244 -.00000048  00000+0  19611-4 0  9993
2 18187  65.0116  33.2967 0016492 282.1654  77.7583 14.31515591 33914
SL-14 R/B               
1 18749U 88001B   26166.33920076  .00000340  00000+0  36503-4 0  9994
2 18749  82.5132 103.5121 0016462 276.2446  83.6895 14.85608385 56520
COSMOS 1933             
1 18958U 88020A   26166.45621998  .00003071  00000+0  14660-3 0  9994
2 18958  82.5118 154.1491 0003349 190.6428 169.4736 15.18701959 65061
SL-3 R/B                
1 19046U 88032B   26166.53244161  .00003181  00000+0  14639-3 0  9996
2 19046  97.5251 149.5748 0023745 251.2206 108.6453 15.20829737 66977
SL-16 R/B               
1 19120U 88039B   26166.50022856 -.00000069  00000+0 -98940-5 0  9991
2 19120  71.0139 221.7253 0022367 195.6905 164.3530 14.19629448972269
COSMOS 1953             
1 19210U 88050A   26166.51447671  .00006567  00000+0  22488-3 0  9990
2 19210  82.5083  59.7215 0012020 131.3408 228.8869 15.29957680 52737
SL-8 R/B                
1 19257U 88053B   26166.54858933  .00000146  00000+0  55633-4 0  9990
2 19257  74.0479 292.0777 0019150  88.0306 348.5067 14.38966879990677
COSMOS 1975             
1 19573U 88093A   26166.32227260  .00005812  00000+0  20300-3 0  9991
2 19573  82.5189  19.5784 0011149 177.9503 182.1785 15.29304840 34322
SL-14 R/B               
1 19574U 88093B   26166.45360433  .00000364  00000+0  38960-4 0  9995
2 19574  82.5310 310.2724 0022131  75.7911 341.6111 14.85740638 15532
SL-16 R/B               
1 19650U 88102B   26166.52192616 -.00000228  00000+0 -90870-4 0  9994
2 19650  71.0001 305.6432 0015894 227.7108 132.2669 14.16164680940749
INTERCOSMOS 24          
1 20261U 89080A   26166.34864973  .00000817  00000+0  23157-3 0  9997
2 20261  82.6067  40.8412 1188383  66.1671 305.9332 12.59659191679094
SL-14 R/B               
1 20262U 89080C   26166.32238176  .00000264  00000+0  78648-4 0  9998
2 20262  82.5930 110.5057 1228847 321.6696  30.2925 12.50569735672352
DELTA 1 R/B             
1 20323U 89089B   26166.49495562  .00000277  00000+0  76872-4 0  9998
2 20323  97.0636 358.3240 0069115 172.3064 187.9211 14.50730469909919
ARIANE 40 R/B           
1 20443U 90005H   26166.44646147  .00000207  00000+0  79267-4 0  9997
2 20443  98.2960 224.1166 0008802 270.4028  89.6152 14.39926508906870
DELTA 2 R/B(1)          
1 20453U 90008B   26166.53586234  .00076147  00000+0  56861-3 0  9991
2 20453  35.5998 246.7045 0065205  98.7694 262.0437 15.68589921941444
COSMOS 2058             
1 20465U 90010A   26166.48100014  .00003566  00000+0  20589-3 0  9992
2 20465  82.4675 311.0370 0009400   7.0219 353.1141 15.12002814957012
SL-14 R/B               
1 20466U 90010B   26166.48179022  .00000319  00000+0  35719-4 0  9993
2 20466  82.5016 175.5465 0019233 342.0593  17.9940 14.83645262942982
