OBJECT_NAME,OBJECT_ID,EPOCH,MEAN_MOTION,ECCENTRICITY,INCLINATION,RA_OF_ASC_NODE,ARG_OF_PERICENTER,MEAN_ANOMALY,EPHEMERIS_TYPE,CLASSIFICATION_TYPE,NORAD_CAT_ID,ELEMENT_SET_NO,REV_AT_EPOCH,BSTAR,MEAN_MOTION_DOT,MEAN_MOTION_DDOT
SL-12 R/B(2),1985-042D,2026-06-15T13:14:16.979424,14.22005622,.0036256,71.1079,240.9719,330.2222,128.4860,0,U,15772,999,12830,.74998E-4,.119E-5,0
SL-14 R/B,1985-069B,2026-06-15T10:03:26.078976,14.86514310,.0017663,82.5269,293.0288,225.3367,134.6411,0,U,15945,999,18735,.40786E-4,.386E-5,0
SL-16 R/B,1985-097B,2026-06-15T12:05:16.115136,14.16610412,.0005418,71.0034,294.6224,115.1232,312.9937,0,U,16182,999,10108,-.79664E-4,-.207E-5,0
SL-14 R/B,1986-006B,2026-06-15T12:05:28.349376,14.86944169,.0075053,82.5262,167.6975,309.1565,50.2997,0,U,16496,999,16374,.49468E-4,.491E-5,0
COSMOS 1743,1986-034A,2026-06-15T11:40:15.812832,15.66808815,.0003806,82.5273,330.5400,278.5316,81.5513,0,U,16719,999,19552,.35764E-3,.37829E-3,0
SL-14 R/B,1986-046B,2026-06-15T12:52:29.661888,14.85670082,.0021585,82.4816,347.7355,264.2652,95.6103,0,U,16792,999,14093,.35603E-4,.334E-5,0
SL-14 R/B,1986-055B,2026-06-15T09:57:35.784000,14.85722019,.0019232,82.5205,34.7992,13.4774,159.4575,0,U,16882,999,13387,.37175E-4,.348E-5,0
AJISAI (EGS),1986-061A,2026-06-15T12:51:25.157376,12.44516822,.0011221,50.0065,152.4732,176.4001,281.6208,0,U,16908,999,48018,-.10352E-3,-.112E-5,0
SL-14 R/B,1987-024B,2026-06-15T12:49:25.401792,14.86212225,.0016879,82.5279,0.8043,299.2083,60.7445,0,U,17567,999,10266,.35222E-4,.334E-5,0
COSMOS 1833,1987-027A,2026-06-15T06:25:34.744800,14.13048561,.002274,70.9175,120.9026,58.3302,302.0033,0,U,17589,999,2410,.192E-3,.311E-5,0
SL-16 R/B,1987-027B,2026-06-15T10:50:10.959936,14.17172125,.0006467,71.0033,70.4861,314.2026,45.8566,0,U,17590,999,2919,-.85219E-4,-.22E-5,0
SL-14 R/B,1987-038B,2026-06-15T12:17:36.614112,14.85444297,.0018737,82.5009,204.6500,196.8163,163.2435,0,U,17912,999,9375,.32613E-4,.306E-5,0
COSMOS 1844,1987-041A,2026-06-15T11:32:12.467040,14.14568262,.0032979,70.8972,187.9071,238.0439,121.7476,0,U,17973,999,1741,-.63434E-4,-.171E-5,0
SL-14 R/B,1987-055B,2026-06-15T12:56:41.968032,14.85710136,.0021807,82.4996,256.7824,52.8551,307.4652,0,U,18153,999,8446,.37889E-4,.355E-5,0
COSMOS 1867,1987-060A,2026-06-15T07:36:15.186816,14.31515591,.0016492,65.0116,33.2967,282.1654,77.7583,0,U,18187,999,3391,.19611E-4,-.48E-6,0
SL-14 R/B,1988-001B,2026-06-15T08:08:26.945664,14.85608385,.0016462,82.5132,103.5121,276.2446,83.6895,0,U,18749,999,5652,.36503E-4,.34E-5,0
COSMOS 1933,1988-020A,2026-06-15T10:56:57.406272,15.18701959,.0003349,82.5118,154.1491,190.6428,169.4736,0,U,18958,999,6506,.1466E-3,.3071E-4,0
SL-3 R/B,1988-032B,2026-06-15T12:46:42.955104,15.20829737,.0023745,97.5251,149.5748,251.2206,108.6453,0,U,19046,999,6697,.14639E-3,.3181E-4,0
SL-16 R/B,1988-039B,2026-06-15T12:00:19.747584,14.19629448,.0022367,71.0139,221.7253,195.6905,164.3530,0,U,19120,999,97226,-.9894E-5,-.69E-6,0
COSMOS 1953,1988-050A,2026-06-15T12:20:50.787744,15.29957680,.001202,82.5083,59.7215,131.3408,228.8869,0,U,19210,999,5273,.22488E-3,.6567E-4,0
SL-8 R/B,1988-053B,2026-06-15T13:09:58.118112,14.38966879,.001915,74.0479,292.0777,88.0306,348.5067,0,U,19257,999,99067,.55633E-4,.146E-5,0
COSMOS 1975,1988-093A,2026-06-15T07:44:04.352640,15.29304840,.0011149,82.5189,19.5784,177.9503,182.1785,0,U,19573,999,3432,.203E-3,.5812E-4,0
SL-14 R/B,1988-093B,2026-06-15T10:53:11.414112,14.85740638,.0022131,82.5310,310.2724,75.7911,341.6111,0,U,19574,999,1553,.3896E-4,.364E-5,0
SL-16 R/B,1988-102B,2026-06-15T12:31:34.420224,14.16164680,.0015894,71.0001,305.6432,227.7108,132.2669,0,U,19650,999,94074,-.9087E-4,-.228E-5,0
INTERCOSMOS 24,1989-080A,2026-06-15T08:22:03.336672,12.59659191,.1188383,82.6067,40.8412,66.1671,305.9332,0,U,20261,999,67909,.23157E-3,.817E-5,0
SL-14 R/B,1989-080C,2026-06-15T07:44:13.784064,12.50569735,.1228847,82.5930,110.5057,321.6696,30.2925,0,U,20262,999,67235,.78648E-4,.264E-5,0
DELTA 1 R/B,1989-089B,2026-06-15T11:52:44.165568,14.50730469,.0069115,97.0636,358.3240,172.3064,187.9211,0,U,20323,999,90991,.76872E-4,.277E-5,0
ARIANE 40 R/B,1990-005H,2026-06-15T10:42:54.271008,14.39926508,.0008802,98.2960,224.1166,270.4028,89.6152,0,U,20443,999,90687,.79267E-4,.207E-5,0
DELTA 2 R/B(1),1990-008B,2026-06-15T12:51:38.506176,15.68589921,.0065205,35.5998,246.7045,98.7694,262.0437,0,U,20453,999,94144,.56861E-3,.76147E-3,0
COSMOS 2058,1990-010A,2026-06-15T11:32:38.412096,15.12002814,.00094,82.4675,311.0370,7.0219,353.1141,0,U,20465,999,95701,.20589E-3,.3566E-4,0
SL-14 R/B,1990-010B,2026-06-15T11:33:46.675008,14.83645262,.0019233,82.5016,175.5465,342.0593,17.9940,0,U,20466,999,94298,.35719E-4,.319E-5,0
